$$SOE
2459580.500000000, A.D. 2022-Jan-01 00:00:00.0000, -2.615682440024979E+08, -3.354333612942382E+08, 1.017701315479367E+08,
2459587.500000000, A.D. 2022-Jan-08 00:00:00.0000, -2.532608524424984E+08, -3.405044066458006E+08, 9.947166295237488E+07,
2459594.500000000, A.D. 2022-Jan-15 00:00:00.0000, -2.448050245424699E+08, -3.453758147114140E+08, 9.711487812691212E+07,
2459601.500000000, A.D. 2022-Jan-22 00:00:00.0000, -2.362041888504438E+08, -3.500425796199849E+08, 9.470055369297591E+07,
2459608.500000000, A.D. 2022-Jan-29 00:00:00.0000, -2.274619152753748E+08, -3.544996804673104E+08, 9.222951006188431E+07,
2459615.500000000, A.D. 2022-Feb-05 00:00:00.0000, -2.185819224051873E+08, -3.587420844291587E+08, 8.970261332621625E+07,
2459622.500000000, A.D. 2022-Feb-12 00:00:00.0000, -2.095680827904616E+08, -3.627647512495850E+08, 8.712077692805919E+07,
2459629.500000000, A.D. 2022-Feb-19 00:00:00.0000, -2.004244275144185E+08, -3.665626367576017E+08, 8.448496341939986E+07,
2459636.500000000, A.D. 2022-Feb-26 00:00:00.0000, -1.911551513545963E+08, -3.701306961573347E+08, 8.179618637509924E+07,
2459643.500000000, A.D. 2022-Mar-05 00:00:00.0000, -1.817646183689694E+08, -3.734638877316947E+08, 7.905551239195216E+07,
2459650.500000000, A.D. 2022-Mar-12 00:00:00.0000, -1.722573676748063E+08, -3.765571770500466E+08, 7.626406314620963E+07,
2459657.500000000, A.D. 2022-Mar-19 00:00:00.0000, -1.626381193378836E+08, -3.794055416784887E+08, 7.342301750326599E+07,
2459664.500000000, A.D. 2022-Mar-26 00:00:00.0000, -1.529117803373255E+08, -3.820039764265268E+08, 7.053361367463484E+07,
2459671.500000000, A.D. 2022-Apr-02 00:00:00.0000, -1.430834505245387E+08, -3.843474992137793E+08, 6.759715140828435E+07,
2459678.500000000, A.D. 2022-Apr-09 00:00:00.0000, -1.331584282877944E+08, -3.864311575789399E+08, 6.461499418332550E+07,
2459685.500000000, A.D. 2022-Apr-16 00:00:00.0000, -1.231422155449345E+08, -3.882500352035622E+08, 6.158857142394924E+07,
2459692.500000000, A.D. 2022-Apr-23 00:00:00.0000, -1.130405233078609E+08, -3.897992573936604E+08, 5.851938093082444E+07,
2459699.500000000, A.D. 2022-Apr-30 00:00:00.0000, -1.028592796589468E+08, -3.910739977939064E+08, 5.540899151079223E+07,
2459706.500000000, A.D. 2022-May-07 00:00:00.0000, -9.260463704379374E+07, -3.920694883420177E+08, 5.225904535573812E+07,
2459713.500000000, A.D. 2022-May-14 00:00:00.0000, -8.228297745768942E+07, -3.927810294620598E+08, 4.907126028456096E+07,
2459720.500000000, A.D. 2022-May-21 00:00:00.0000, -7.190091752206042E+07, -3.932039997732505E+08, 4.584743208806820E+07,
2459727.500000000, A.D. 2022-May-28 00:00:00.0000, -6.146531389101935E+07, -3.933338663053470E+08, 4.258943693158633E+07,
2459734.500000000, A.D. 2022-Jun-04 00:00:00.0000, -5.098326866707340E+07, -3.931661955630473E+08, 3.929923375127749E+07,
2459741.500000000, A.D. 2022-Jun-11 00:00:00.0000, -4.046213463159342E+07, -3.926966654643316E+08, 3.597886661596246E+07,
2459748.500000000, A.D. 2022-Jun-18 00:00:00.0000, -2.990952019520801E+07, -3.919210781646082E+08, 3.263046703512093E+07,
2459755.500000000, A.D. 2022-Jun-25 00:00:00.0000, -1.933329397632411E+07, -3.908353738235664E+08, 2.925625618941899E+07,
2459762.500000000, A.D. 2022-Jul-02 00:00:00.0000, -8.741588805628825E+06, -3.894356454024211E+08, 2.585854704653275E+07,
2459769.500000000, A.D. 2022-Jul-09 00:00:00.0000, 1.857195307556203E+06, -3.877181543339322E+08, 2.243974631980433E+07,
2459776.500000000, A.D. 2022-Jul-16 00:00:00.0000, 1.245438927144214E+07, -3.856793459984069E+08, 1.900235634032585E+07,
2459783.500000000, A.D. 2022-Jul-23 00:00:00.0000, 2.304105195707820E+07, -3.833158649389470E+08, 1.554897702532552E+07,
2459790.500000000, A.D. 2022-Jul-30 00:00:00.0000, 3.360796636808137E+07, -3.806245731745386E+08, 1.208230763349715E+07,
2459797.500000000, A.D. 2022-Aug-06 00:00:00.0000, 4.414563863083845E+07, -3.776025709626392E+08, 8.605148000399828E+06,
2459804.500000000, A.D. 2022-Aug-13 00:00:00.0000, 5.464429908377189E+07, -3.742472172500989E+08, 5.120399522576243E+06,
2459811.500000000, A.D. 2022-Aug-20 00:00:00.0000, 6.509390400277045E+07, -3.705561502987431E+08, 1.631065958687305E+06,
2459818.500000000, A.D. 2022-Aug-27 00:00:00.0000, 7.548413814263111E+07, -3.665273091836885E+08, -1.859746054905459E+06,
2459825.500000000, A.D. 2022-Sep-03 00:00:00.0000, 8.580441845877846E+07, -3.621589562345105E+08, -5.348826845013231E+06,
2459832.500000000, A.D. 2022-Sep-10 00:00:00.0000, 9.604389921943046E+07, -3.574497003414893E+08, -8.832863946382716E+06,
2459839.500000000, A.D. 2022-Sep-17 00:00:00.0000, 1.061914786611199E+08, -3.523985210599291E+08, -1.230844279608712E+07,
2459846.500000000, A.D. 2022-Sep-24 00:00:00.0000, 1.162358073745553E+08, -3.470047934798238E+08, -1.577204793151078E+07,
2459853.500000000, A.D. 2022-Oct-01 00:00:00.0000, 1.261652987883074E+08, -3.412683137851335E+08, -1.922006476100621E+07,
2459860.500000000, A.D. 2022-Oct-08 00:00:00.0000, 1.359681422828819E+08, -3.351893248664963E+08, -2.264878194787115E+07,
2459867.500000000, A.D. 2022-Oct-15 00:00:00.0000, 1.456323181239620E+08, -3.287685406548157E+08, -2.605439427044901E+07,
2459874.500000000, A.D. 2022-Oct-22 00:00:00.0000, 1.551456121476347E+08, -3.220071707036828E+08, -2.943300594169103E+07,
2459881.500000000, A.D. 2022-Oct-29 00:00:00.0000, 1.644956328033839E+08, -3.149069474355353E+08, -3.278063487377457E+07,
2459888.500000000, A.D. 2022-Nov-05 00:00:00.0000, 1.736698327538719E+08, -3.074701531133158E+08, -3.609321789886349E+07,
2459895.500000000, A.D. 2022-Nov-12 00:00:00.0000, 1.826555331529562E+08, -2.996996450544865E+08, -3.936661670193839E+07,
2459902.500000000, A.D. 2022-Nov-19 00:00:00.0000, 1.914399499518306E+08, -2.915988798042636E+08, -4.259662451357402E+07,
2459909.500000000, A.D. 2022-Nov-26 00:00:00.0000, 2.000102225454225E+08, -2.831719364076220E+08, -4.577897365026440E+07,
2459916.500000000, A.D. 2022-Dec-03 00:00:00.0000, 2.083534449522969E+08, -2.744235385154657E+08, -4.890934394373745E+07,
2459923.500000000, A.D. 2022-Dec-10 00:00:00.0000, 2.164566995736594E+08, -2.653590750138484E+08, -5.198337208020234E+07,
2459930.500000000, A.D. 2022-Dec-17 00:00:00.0000, 2.243070935240294E+08, -2.559846188937832E+08, -5.499666186356275E+07,
2459937.500000000, A.D. 2022-Dec-24 00:00:00.0000, 2.318917975751313E+08, -2.463069441060216E+08, -5.794479541720994E+07,
2459944.500000000, A.D. 2022-Dec-31 00:00:00.0000, 2.391980879661543E+08, -2.363335399616655E+08, -6.082334533552618E+07,
2459951.500000000, A.D. 2023-Jan-07 00:00:00.0000, 2.462133910604281E+08, -2.260726217806631E+08, -6.362788769179514E+07,
2459958.500000000, A.D. 2023-Jan-14 00:00:00.0000, 2.529253286983365E+08, -2.155331369560619E+08, -6.635401564191657E+07,
2459965.500000000, A.D. 2023-Jan-21 00:00:00.0000, 2.593217633779306E+08, -2.047247692759542E+08, -6.899735377093050E+07,
2459972.500000000, A.D. 2023-Jan-28 00:00:00.0000, 2.653908466681608E+08, -1.936579413833995E+08, -7.155357346925449E+07,
2459979.500000000, A.D. 2023-Feb-04 00:00:00.0000, 2.711210703409481E+08, -1.823438120591982E+08, -7.401840899419960E+07,
2459986.500000000, A.D. 2023-Feb-11 00:00:00.0000, 2.765013180740200E+08, -1.707942682644481E+08, -7.638767397504786E+07,
2459993.500000000, A.D. 2023-Feb-18 00:00:00.0000, 2.815209172624723E+08, -1.590219125413045E+08, -7.865727831364220E+07,
2460000.500000000, A.D. 2023-Feb-25 00:00:00.0000, 2.861696907636381E+08, -1.470400457474313E+08, -8.082324539247414E+07,
2460007.500000000, A.D. 2023-Mar-04 00:00:00.0000, 2.904380082063419E+08, -1.348626449663098E+08, -8.288172945883313E+07,
2460014.500000000, A.D. 2023-Mar-11 00:00:00.0000, 2.943168363951272E+08, -1.225043365095813E+08, -8.482903303640744E+07,
2460021.500000000, A.D. 2023-Mar-18 00:00:00.0000, 2.977977883370714E+08, -1.099803640402866E+08, -8.666162421127963E+07,
2460028.500000000, A.D. 2023-Mar-25 00:00:00.0000, 3.008731705591958E+08, -9.730655190997152E+07, -8.837615364418460E+07,
2460035.500000000, A.D. 2023-Apr-01 00:00:00.0000, 3.035360286009728E+08, -8.449926342875266E+07, -8.996947113850114E+07,
2460042.500000000, A.D. 2023-Apr-08 00:00:00.0000, 3.057801895392555E+08, -7.157535302852015E+07, -9.143864143025628E+07,
2460049.500000000, A.D. 2023-Apr-15 00:00:00.0000, 3.076002986998464E+08, -5.855211369174014E+07, -9.278095890254198E+07,
2460056.500000000, A.D. 2023-Apr-22 00:00:00.0000, 3.089918518730751E+08, -4.544722303734401E+07, -9.399396146666275E+07,
2460063.500000000, A.D. 2023-Apr-29 00:00:00.0000, 3.099512253101202E+08, -3.227868621380806E+07, -9.507544350853044E+07,
2460070.500000000, A.D. 2023-May-06 00:00:00.0000, 3.104757013333289E+08, -1.906477428564567E+07, -9.602346743770468E+07,
2460077.500000000, A.D. 2023-May-13 00:00:00.0000, 3.105634882350817E+08, -5.823959534613103E+06, -9.683637368221393E+07,
2460084.500000000, A.D. 2023-May-20 00:00:00.0000, 3.102137344143429E+08, 7.425151255020149E+06, -9.751278906754684E+07,
2460091.500000000, A.D. 2023-May-27 00:00:00.0000, 3.094265367303963E+08, 2.066388487943584E+07, -9.805163349653609E+07,
2460098.500000000, A.D. 2023-Jun-03 00:00:00.0000, 3.082029429943597E+08, 3.387357054524415E+07, -9.845212485220203E+07,
2460105.500000000, A.D. 2023-Jun-10 00:00:00.0000, 3.065449485663584E+08, 4.703560876845261E+07, -9.871378207019082E+07,
2460112.500000000, A.D. 2023-Jun-17 00:00:00.0000, 3.044554871746630E+08, 6.013153961288047E+07, -9.883642636315612E+07,
2460119.500000000, A.D. 2023-Jun-24 00:00:00.0000, 3.019384163853489E+08, 7.314310965984845E+07, -9.882018061684819E+07,
2460126.500000000, A.D. 2023-Jul-01 00:00:00.0000, 2.989984981583837E+08, 8.605233789330107E+07, -9.866546693117240E+07,
2460133.500000000, A.D. 2023-Jul-08 00:00:00.0000, 2.956413730746269E+08, 9.884158071847507E+07, -9.837300212875979E+07,
2460140.500000000, A.D. 2023-Jul-15 00:00:00.0000, 2.918735272971678E+08, 1.114935927235270E+08, -9.794379141989125E+07,
2460147.500000000, A.D. 2023-Jul-22 00:00:00.0000, 2.877022561864977E+08, 1.239915816315946E+08, -9.737912072606507E+07,
$$EOE